{"type":"FeatureCollection","features":[{"type":"Feature","properties":{"@id":"way/6345763","destination":"Seattle","destination:ref":"WA 509 North","highway":"motorway_link","lanes":1,"maxspeed":"60 mph","oneway":"yes","ref":"WA 509","surface":"asphalt"},"geometry":{"type":"LineString","coordinates":[[-122.3218448,47.4386593],[-122.3215011,47.4383571],[-122.3211985,47.4381503],[-122.3211253,47.4380728],[-122.3210945,47.438008],[-122.3210892,47.4379335],[-122.3211051,47.4378639],[-122.3211307,47.4378042],[-122.3211722,47.4377533],[-122.3212376,47.4376985],[-122.3213147,47.4376607],[-122.3214114,47.4376334],[-122.3215199,47.4376189],[-122.3216079,47.4376207],[-122.3217092,47.4376335],[-122.3218324,47.437674],[-122.3219182,47.437727],[-122.322051,47.4378262],[-122.3221747,47.4379545],[-122.3222657,47.4380957],[-122.3223208,47.4382325],[-122.3223526,47.438338],[-122.3223621,47.4384365],[-122.3223619,47.4385287],[-122.3223481,47.4386138],[-122.3223245,47.4387059],[-122.3222958,47.4387773]]},"id":"way/6345763"},{"type":"Feature","properties":{"@id":"way/6345767","destination":"Normandy Park","destination:ref":"WA 509 South","highway":"motorway_link","lanes":1,"oneway":"yes","ref":"WA 509","surface":"asphalt"},"geometry":{"type":"LineString","coordinates":[[-122.3205026,47.4434408],[-122.3205236,47.4433138],[-122.3205203,47.442776],[-122.3205583,47.4424231],[-122.3206932,47.4417732],[-122.3207991,47.4414997],[-122.3209279,47.4412328],[-122.3211129,47.4409627],[-122.3213114,47.4407044],[-122.3217904,47.4401247],[-122.3224037,47.4394029],[-122.3224459,47.4393598],[-122.3224846,47.4393279],[-122.3225309,47.4393012],[-122.3225834,47.4392804],[-122.3226406,47.4392661],[-122.3227005,47.4392589],[-122.3227614,47.4392589],[-122.3228214,47.4392661],[-122.3229561,47.4393084],[-122.3232674,47.4394411]]},"id":"way/6345767"},{"type":"Feature","properties":{"@id":"way/6380958","cycleway:left":"lane","cycleway:right":"shoulder","highway":"secondary","maxspeed":"40 mph","name":"South Dash Point Road","name_1":"State Route 509","ref":"WA 509","tiger:cfcc":"A31","tiger:county":"King, WA","tiger:name_base":"Dash Point","tiger:name_base_1":"State Route 509","tiger:name_direction_prefix":"S"},"geometry":{"type":"LineString","coordinates":[[-122.3153733,47.336375],[-122.3166047,47.3358788],[-122.3167352,47.3358272]]},"id":"way/6380958"},{"type":"Feature","properties":{"@id":"way/6408809","highway":"primary","maxspeed":"30 mph","name":"Marine View Drive South","ref":"WA 509","surface":"asphalt","tiger:cfcc":"A41","tiger:county":"King, WA","tiger:name_base":"Marine View","tiger:name_direction_suffix":"S"},"geometry":{"type":"LineString","coordinates":[[-122.3263776,47.4083765],[-122.3261316,47.4082576]]},"id":"way/6408809"},{"type":"Feature","properties":{"@id":"way/6441888","highway":"primary","lanes":4,"name":"South 174th Street","name_1":"State Route 509","ref":"WA 509","surface":"asphalt","tiger:cfcc":"A31","tiger:county":"King, WA","tiger:name_base":"174th","tiger:name_base_1":"State Route 509","tiger:name_direction_prefix":"S"},"geometry":{"type":"LineString","coordinates":[[-122.3331572,47.447494],[-122.3329654,47.4474914],[-122.3325571,47.4474548],[-122.3321803,47.4473711],[-122.3321601,47.4473653],[-122.3318348,47.4472715],[-122.3315204,47.4471417],[-122.331068,47.4469231],[-122.3307409,47.4467184],[-122.3303892,47.446412]]},"id":"way/6441888"},{"type":"Feature","properties":{"@id":"way/6446185","bridge":"yes","cycleway":"shoulder","highway":"secondary","layer":2,"name":"Southwest Dash Point Road","name_1":"State Route 509","ref":"WA 509","surface":"asphalt","tiger:cfcc":"A31","tiger:county":"King, WA","tiger:name_base":"Dash Point","tiger:name_base_1":"State Route 509","tiger:name_direction_prefix":"SW"},"geometry":{"type":"LineString","coordinates":[[-122.334604,47.3307906],[-122.3347191,47.330802],[-122.3348234,47.3308195],[-122.3349205,47.3308437],[-122.3349924,47.3308777],[-122.3350531,47.3309245],[-122.3351455,47.3309845]]},"id":"way/6446185"},{"type":"Feature","properties":{"@id":"way/6446191","highway":"secondary","lanes":2,"maxspeed":"35 mph","name":"Southwest Dash Point Road","name_1":"State Route 509","ref":"WA 509","surface":"asphalt","tiger:cfcc":"A31","tiger:county":"King, WA","tiger:name_base":"Dash Point","tiger:name_base_1":"State Route 509","tiger:name_direction_prefix":"SW"},"geometry":{"type":"LineString","coordinates":[[-122.3605793,47.3207102],[-122.3607901,47.3207733],[-122.3609121,47.3208042],[-122.3610918,47.3208205],[-122.3612809,47.3208333],[-122.3614593,47.3208087],[-122.361647,47.320756],[-122.3618741,47.3206492],[-122.3622233,47.3204547],[-122.362326,47.3203729],[-122.3625756,47.3201757],[-122.3627075,47.3200861],[-122.3628373,47.3200251],[-122.3629542,47.3199852],[-122.3630862,47.3199497],[-122.3632778,47.3199292],[-122.3645327,47.3199689]]},"id":"way/6446191"},{"type":"Feature","properties":{"@id":"way/6446239","highway":"secondary","lanes":2,"maxspeed":"35 mph","name":"Southwest Dash Point Road","name_1":"State Route 509","ref":"WA 509","surface":"asphalt","tiger:cfcc":"A31","tiger:county":"King, WA","tiger:name_base":"Dash Point","tiger:name_base_1":"State Route 509","tiger:name_direction_prefix":"SW"},"geometry":{"type":"LineString","coordinates":[[-122.3708429,47.3286665],[-122.3709024,47.3286636],[-122.3710994,47.3286826],[-122.3712396,47.328642],[-122.3713678,47.3285992],[-122.3726071,47.3282436],[-122.3729297,47.3281511],[-122.3732465,47.3280759],[-122.3734107,47.3280178],[-122.3741196,47.327767],[-122.3749366,47.3274632],[-122.3752335,47.3273528],[-122.3759868,47.3270864],[-122.3762652,47.3269879]]},"id":"way/6446239"},{"type":"Feature","properties":{"@id":"way/6446245","highway":"secondary","lanes":2,"maxspeed":"35 mph","name":"Southwest Dash Point Road","name_1":"State Route 509","ref":"WA 509","surface":"asphalt","tiger:cfcc":"A31","tiger:county":"King, WA","tiger:name_base":"Dash Point","tiger:name_base_1":"State Route 509","tiger:name_direction_prefix":"SW"},"geometry":{"type":"LineString","coordinates":[[-122.3656025,47.3194125],[-122.3656534,47.3194052],[-122.3657008,47.3194039],[-122.3657566,47.3194087],[-122.3657939,47.3194179],[-122.3658291,47.3194319],[-122.3658632,47.3194539],[-122.365891,47.3194818],[-122.3659092,47.319509],[-122.3659214,47.3195401],[-122.3659279,47.3195803],[-122.3659209,47.3196265],[-122.3659097,47.3196651],[-122.3658822,47.3197155],[-122.3658248,47.3197907],[-122.3658042,47.3198241],[-122.3657816,47.3198698],[-122.3657544,47.3199455],[-122.3657461,47.3199916],[-122.3657424,47.3200422],[-122.3657424,47.3200877],[-122.3657484,47.320132],[-122.3657578,47.3201771],[-122.3657725,47.3202219],[-122.3658148,47.3203029],[-122.3658613,47.3203693],[-122.3659078,47.3204297],[-122.3661685,47.3207079],[-122.3663069,47.3208821],[-122.3663748,47.3209751],[-122.3664095,47.32103],[-122.366441,47.321092],[-122.3666024,47.3215433],[-122.36664,47.3216688],[-122.3666614,47.3217815],[-122.3666614,47.3219633],[-122.3666936,47.3221088],[-122.3667392,47.3222269],[-122.3668304,47.3224088],[-122.3669592,47.3226051],[-122.3669913,47.3227233],[-122.3670182,47.3228324],[-122.3670477,47.3229342],[-122.3670852,47.3230015],[-122.3671362,47.3230615],[-122.3671764,47.3231233],[-122.3672339,47.3231616],[-122.367283,47.3232026],[-122.36735,47.323247],[-122.3675278,47.3233924],[-122.367745,47.323596],[-122.3679416,47.323879],[-122.368134,47.3244487],[-122.3681876,47.3246196],[-122.3682627,47.3247978],[-122.3683405,47.3249578],[-122.3684505,47.3250978],[-122.3685846,47.3252287],[-122.3687992,47.3253287],[-122.3689359,47.3253832],[-122.3690942,47.3254832],[-122.3692739,47.3256051],[-122.3694402,47.3258687],[-122.3697165,47.3261505],[-122.3698935,47.3263596],[-122.3700142,47.3264759],[-122.3701215,47.3266886],[-122.3702341,47.3269595],[-122.3703897,47.3272631],[-122.3706955,47.3278522],[-122.3707901,47.3281198],[-122.3708098,47.3282025],[-122.3708244,47.3282794],[-122.3708308,47.3283726],[-122.3708352,47.3284494],[-122.37084,47.3285495],[-122.3708429,47.3286665]]},"id":"way/6446245"},{"type":"Feature","properties":{"@id":"way/6483531","highway":"primary","maxspeed":"35 mph","name":"South 216th Place","name_1":"State Route 509","ref":"WA 509","surface":"asphalt","tiger:cfcc":"A31","tiger:county":"King, WA","tiger:name_base":"216th","tiger:name_base_1":"State Route 509","tiger:name_direction_prefix":"S"},"geometry":{"type":"LineString","coordinates":[[-122.3328042,47.4085818],[-122.332738,47.408495],[-122.3327105,47.4084588],[-122.3326132,47.4083729],[-122.3324948,47.4082747],[-122.3323846,47.4082127],[-122.3323568,47.408197],[-122.3322275,47.4081308],[-122.3320791,47.4080734],[-122.3317963,47.4080033],[-122.3315811,47.4079769],[-122.3313635,47.4079645],[-122.3311848,47.4079766],[-122.3308968,47.4080286],[-122.3301655,47.4082058],[-122.3299588,47.4082577],[-122.3297842,47.4083031],[-122.3296123,47.4083469],[-122.3291527,47.4084431]]},"id":"way/6483531"},{"type":"Feature","properties":{"@id":"way/8116984","destination":"Burien","destination:ref:to":"WA 509 South","highway":"motorway","hov:lanes":"designated||","hov:minimum":2,"lanes":3,"lit":"yes","maxspeed":"45 mph","motor_vehicle:lanes":"no||","oneway":"yes","ref":"WA 509","surface":"asphalt"},"geometry":{"type":"LineString","coordinates":[[-122.334977,47.5372707],[-122.3347084,47.5345287]]},"id":"way/8116984"},{"type":"Feature","properties":{"@id":"way/8468954","destination:lanes":"none|none|none;5th Avenue South;Glendale Way South","highway":"motorway","lanes":3,"maxspeed":"60 mph","oneway":"yes","ref":"WA 509","surface":"asphalt","turn:lanes":"none|none|through;slight_right"},"geometry":{"type":"LineString","coordinates":[[-122.3331772,47.5231899],[-122.3330482,47.5228655],[-122.3328638,47.5224868],[-122.3326753,47.5221147],[-122.3323679,47.5216166],[-122.3317885,47.5207229],[-122.3313101,47.5200208],[-122.3311087,47.5196895],[-122.3309317,47.5193041],[-122.330789,47.5189159],[-122.330416,47.5175616],[-122.330304,47.517155],[-122.3301855,47.5168496],[-122.3300318,47.5165308],[-122.3288585,47.5146067],[-122.3255111,47.5081574],[-122.3252398,47.5075547],[-122.3251427,47.5072711],[-122.3250778,47.5070421],[-122.3249946,47.5067225],[-122.3249463,47.5064743],[-122.3249144,47.506248],[-122.3248924,47.5058449]]},"id":"way/8468954"},{"type":"Feature","properties":{"@id":"way/8468955","bridge":"yes","highway":"motorway","lanes":3,"layer":1,"maxspeed":"60 mph","oneway":"yes","ref":"WA 509","surface":"concrete"},"geometry":{"type":"LineString","coordinates":[[-122.3249102,47.5030377],[-122.3249102,47.5024579]]},"id":"way/8468955"},{"type":"Feature","properties":{"@id":"way/8468960","highway":"motorway","lanes":3,"maxspeed":"60 mph","oneway":"yes","ref":"WA 509","surface":"asphalt","turn:lanes":"none|none|merge_to_left"},"geometry":{"type":"LineString","coordinates":[[-122.3249102,47.5024579],[-122.3249207,47.5010885]]},"id":"way/8468960"},{"type":"Feature","properties":{"@id":"way/11091486","bicycle":"designated","cycleway:left":"lane","cycleway:right":"shoulder","highway":"secondary","maxspeed":"40 mph","name":"South Dash Point Road","name_1":"State Route 509","ref":"WA 509","tiger:cfcc":"A31","tiger:county":"King, WA","tiger:name_base":"Dash Point","tiger:name_base_1":"State Route 509","tiger:name_direction_prefix":"S"},"geometry":{"type":"LineString","coordinates":[[-122.3141521,47.3365933],[-122.3141941,47.3366012],[-122.314297,47.3366107],[-122.3143998,47.3366142],[-122.3144964,47.3366125],[-122.3145881,47.3366058],[-122.3146628,47.3365945],[-122.3147078,47.3365877],[-122.3148915,47.3365467],[-122.3150455,47.3364997],[-122.3153733,47.336375]]},"id":"way/11091486"},{"type":"Feature","properties":{"@id":"way/25424509","highway":"primary","maxspeed":"30 mph","name":"South 216th Street","ref":"WA 509","surface":"asphalt","tiger:cfcc":"A41","tiger:county":"King, WA","tiger:name_base":"216th","tiger:name_direction_prefix":"S"},"geometry":{"type":"LineString","coordinates":[[-122.3269211,47.4085272],[-122.3266308,47.4084556],[-122.3263776,47.4083765]]},"id":"way/25424509"},{"type":"Feature","properties":{"@id":"way/29315795","bridge":"yes","highway":"motorway","lanes":2,"layer":1,"maxspeed":"60 mph","oneway":"yes","ref":"WA 509","surface":"concrete"},"geometry":{"type":"LineString","coordinates":[[-122.3247299,47.5024491],[-122.3247374,47.50303]]},"id":"way/29315795"},{"type":"Feature","properties":{"@id":"way/29315796","destination:lanes":"none|none;South 160th Street","highway":"motorway","lanes":2,"maxspeed":"60 mph","oneway":"yes","ref":"WA 509","surface":"asphalt","turn:lanes":"none|through;slight_right"},"geometry":{"type":"LineString","coordinates":[[-122.3262656,47.4545041],[-122.3269435,47.4556758]]},"id":"way/29315796"},{"type":"Feature","properties":{"@id":"way/29315805","highway":"motorway","lanes":2,"maxspeed":"60 mph","oneway":"yes","ref":"WA 509","surface":"asphalt","tiger:cfcc":"A11","tiger:county":"King, WA","tiger:name_base":"State Route 509"},"geometry":{"type":"LineString","coordinates":[[-122.3247374,47.50303],[-122.324721,47.506114],[-122.3247436,47.5066475],[-122.3247959,47.507001],[-122.3248895,47.5074402]]},"id":"way/29315805"},{"type":"Feature","properties":{"@id":"way/31127231","highway":"motorway","lanes":2,"maxspeed":"60 mph","oneway":"yes","ref":"WA 509","surface":"asphalt"},"geometry":{"type":"LineString","coordinates":[[-122.3258754,47.4535473],[-122.325336,47.452632]]},"id":"way/31127231"},{"type":"Feature","properties":{"@id":"way/31127232","bridge":"yes","highway":"motorway","lanes":3,"layer":1,"maxspeed":"60 mph","oneway":"yes","ref":"WA 509","surface":"concrete","turn:lanes":"||merge_to_left"},"geometry":{"type":"LineString","coordinates":[[-122.3263228,47.4543098],[-122.3258754,47.4535473]]},"id":"way/31127232"},{"type":"Feature","properties":{"@id":"way/31127233","highway":"motorway_link","lanes":2,"maxspeed":"60 mph","oneway":"yes","ref":"WA 509","surface":"asphalt"},"geometry":{"type":"LineString","coordinates":[[-122.3204443,47.4415556],[-122.3203649,47.4419703],[-122.3203328,47.4422261],[-122.3203181,47.4424684],[-122.3203135,47.4429662],[-122.3203449,47.443358],[-122.32034,47.4435341]]},"id":"way/31127233"},{"type":"Feature","properties":{"@id":"way/31127241","bridge":"yes","highway":"motorway","lanes":2,"layer":1,"maxspeed":"60 mph","oneway":"yes","ref":"WA 509","surface":"concrete"},"geometry":{"type":"LineString","coordinates":[[-122.3258166,47.453745],[-122.3262656,47.4545041]]},"id":"way/31127241"},{"type":"Feature","properties":{"@id":"way/31137132","bridge":"yes","highway":"motorway","lanes":2,"layer":1,"maxspeed":"60 mph","oneway":"yes","ref":"WA 509","surface":"concrete"},"geometry":{"type":"LineString","coordinates":[[-122.3265835,47.4882561],[-122.3264014,47.4887802]]},"id":"way/31137132"},{"type":"Feature","properties":{"@id":"way/31137134","highway":"motorway","lanes":2,"maxspeed":"60 mph","oneway":"yes","ref":"WA 509","surface":"asphalt"},"geometry":{"type":"LineString","coordinates":[[-122.3252293,47.4921385],[-122.3251507,47.4924731],[-122.3248345,47.494581],[-122.3248028,47.4957807],[-122.3247492,47.4994089],[-122.3247299,47.5024491]]},"id":"way/31137134"},{"type":"Feature","properties":{"@id":"way/37043623","bridge":"yes","highway":"motorway_link","lanes":1,"layer":1,"maxspeed":"60 mph","oneway":"yes","ref":"WA 509","surface":"concrete"},"geometry":{"type":"LineString","coordinates":[[-122.3222958,47.4387773],[-122.3222376,47.4388922],[-122.3221656,47.4389963]]},"id":"way/37043623"},{"type":"Feature","properties":{"@id":"way/37043624","highway":"motorway_link","lanes":1,"maxspeed":"60 mph","oneway":"yes","ref":"WA 509","surface":"asphalt"},"geometry":{"type":"LineString","coordinates":[[-122.3221656,47.4389963],[-122.3214191,47.43989],[-122.3211374,47.4402339],[-122.3210032,47.4404104],[-122.3208751,47.4405901],[-122.3207178,47.4408758],[-122.3205746,47.4411629],[-122.3205056,47.4413723],[-122.3204443,47.4415556]]},"id":"way/37043624"},{"type":"Feature","properties":{"@id":"way/37044222","bridge":"yes","highway":"motorway","lanes":2,"layer":2,"maxspeed":"60 mph","oneway":"yes","ref":"WA 509","surface":"asphalt"},"geometry":{"type":"LineString","coordinates":[[-122.3249084,47.4521977],[-122.3251655,47.4526335]]},"id":"way/37044222"},{"type":"Feature","properties":{"@id":"way/37044223","highway":"motorway","lanes":2,"maxspeed":"60 mph","oneway":"yes","ref":"WA 509","surface":"asphalt"},"geometry":{"type":"LineString","coordinates":[[-122.3251655,47.4526335],[-122.3258166,47.453745]]},"id":"way/37044223"},{"type":"Feature","properties":{"@id":"way/37044224","bridge":"yes","highway":"motorway","lanes":2,"layer":2,"maxspeed":"60 mph","oneway":"yes","ref":"WA 509","surface":"asphalt"},"geometry":{"type":"LineString","coordinates":[[-122.325336,47.452632],[-122.3250781,47.4521958]]},"id":"way/37044224"},{"type":"Feature","properties":{"@id":"way/37044225","highway":"motorway","lanes":2,"maxspeed":"60 mph","oneway":"yes","ref":"WA 509","surface":"asphalt"},"geometry":{"type":"LineString","coordinates":[[-122.3250781,47.4521958],[-122.3240285,47.4503612],[-122.3232122,47.4489767]]},"id":"way/37044225"},{"type":"Feature","properties":{"@id":"way/88641511","highway":"primary","lanes":5,"lanes:backward":3,"lanes:forward":2,"name":"Ambaum Boulevard South","name_1":"State Route 509","oneway":"no","ref":"WA 509","surface":"asphalt","tiger:cfcc":"A31","tiger:county":"King, WA","tiger:name_base":"Ambaum","tiger:name_base_1":"State Route 509","tiger:name_direction_suffix":"S","turn:lanes:backward":"left||"},"geometry":{"type":"LineString","coordinates":[[-122.3289612,47.4435681],[-122.3290624,47.4440237]]},"id":"way/88641511"},{"type":"Feature","properties":{"@id":"way/88645162","bridge":"yes","highway":"primary","layer":1,"maxspeed":"30 mph","name":"Marine View Drive South","ref":"WA 509","surface":"asphalt","tiger:cfcc":"A41","tiger:county":"King, WA","tiger:name_base":"Marine View","tiger:name_direction_suffix":"S"},"geometry":{"type":"LineString","coordinates":[[-122.3261316,47.4082576],[-122.3258906,47.4080927]]},"id":"way/88645162"},{"type":"Feature","properties":{"@id":"way/99094735","highway":"primary","lanes":5,"lanes:backward":2,"lanes:both_ways":1,"lanes:forward":2,"maxspeed":"35 mph","name":"1st Avenue South","name_1":"State Route 509","oneway":"no","ref":"WA 509","sidewalk":"separate","surface":"asphalt","tiger:cfcc":"A31","tiger:county":"King, WA","tiger:name_base":"1st","tiger:name_base_1":"State Route 509","tiger:name_direction_suffix":"S","turn:lanes:both_ways":"left"},"geometry":{"type":"LineString","coordinates":[[-122.3339838,47.4449296],[-122.3340088,47.4447084],[-122.3340441,47.444395],[-122.3340483,47.4443581],[-122.3340732,47.444137],[-122.3340929,47.4439617],[-122.3340998,47.4439003],[-122.3341284,47.4436464],[-122.3341407,47.4435377],[-122.3341631,47.4434472],[-122.334199,47.4431611],[-122.3342101,47.4430723],[-122.3342214,47.4429821],[-122.334248,47.44277],[-122.334264,47.4426421],[-122.3342883,47.4424488]]},"id":"way/99094735"},{"type":"Feature","properties":{"@id":"way/124272591","highway":"motorway","lanes":3,"maxheight":"default","maxspeed":"60 mph","oneway":"yes","ref":"WA 509"},"geometry":{"type":"LineString","coordinates":[[-122.3338084,47.5270167],[-122.3336599,47.5260613],[-122.3334884,47.5248345],[-122.3333945,47.524185],[-122.3332995,47.5236981],[-122.3331772,47.5231899]]},"id":"way/124272591"},{"type":"Feature","properties":{"@id":"way/124272593","destination:lanes":"none|none;South 128th Street","highway":"motorway","lanes":2,"maxspeed":"60 mph","oneway":"yes","ref":"WA 509","surface":"asphalt","turn:lanes":"none|through;slight_right"},"geometry":{"type":"LineString","coordinates":[[-122.3249207,47.5010885],[-122.3249332,47.499472],[-122.3249617,47.4957661],[-122.3249961,47.4946759],[-122.3251077,47.4935566],[-122.3253394,47.4923851],[-122.3255106,47.4918693]]},"id":"way/124272593"},{"type":"Feature","properties":{"@id":"way/124272595","destination:lanes":"Seattle|Seattle|Seattle|West Marginal Way","highway":"motorway","hov:lanes":"designated|||","hov:minimum":2,"lanes":4,"lit":"yes","maxspeed":"60 mph","motor_vehicle:lanes":"no|||","oneway":"yes","ref":"WA 509","turn:lanes":"|||slight_right"},"geometry":{"type":"LineString","coordinates":[[-122.3339854,47.5283979],[-122.3341558,47.528834],[-122.3342725,47.5292002],[-122.3343826,47.5295903],[-122.3344079,47.5297324],[-122.3344681,47.5301042],[-122.3344968,47.5304],[-122.3345049,47.530562],[-122.3345095,47.5306359],[-122.3345124,47.530689],[-122.3345111,47.5307635],[-122.3345042,47.5322143]]},"id":"way/124272595"},{"type":"Feature","properties":{"@id":"way/163067700","bridge":"yes","cycleway":"shoulder","highway":"secondary","layer":2,"name":"South Dash Point Road","name_1":"State Route 509","ref":"WA 509","tiger:cfcc":"A31","tiger:county":"King, WA","tiger:name_base":"Dash Point","tiger:name_base_1":"State Route 509","tiger:name_direction_prefix":"S"},"geometry":{"type":"LineString","coordinates":[[-122.3341272,47.3308778],[-122.334225,47.3308358],[-122.3343369,47.3308113],[-122.3344278,47.3307999],[-122.3345222,47.3307904],[-122.334604,47.3307906]]},"id":"way/163067700"},{"type":"Feature","properties":{"@id":"way/163067704","cycleway":"shoulder","fixme":"Has concrete median","highway":"secondary","lanes":2,"maxspeed":"35 mph","name":"Southwest Dash Point Road","name_1":"State Route 509","ref":"WA 509","surface":"asphalt","tiger:cfcc":"A31","tiger:county":"King, WA","tiger:name_base":"Dash Point","tiger:name_base_1":"State Route 509","tiger:name_direction_prefix":"SW"},"geometry":{"type":"LineString","coordinates":[[-122.3559158,47.3226529],[-122.3558254,47.3227376],[-122.3556845,47.3228697],[-122.3555649,47.3229818],[-122.3552728,47.3232617],[-122.3547657,47.323731],[-122.3546508,47.3238355],[-122.3545678,47.3239111],[-122.3545055,47.3239678],[-122.3544539,47.32402],[-122.3541156,47.3243324],[-122.353948,47.3244907],[-122.3534215,47.3249879],[-122.3531078,47.3252836],[-122.3529272,47.3254541],[-122.3525818,47.3257809],[-122.3522195,47.326123],[-122.3508944,47.3273719],[-122.3505811,47.3276673],[-122.3498014,47.3284021],[-122.3480558,47.330046],[-122.3478395,47.3302218],[-122.3475211,47.3304074],[-122.3471747,47.3305452],[-122.3468197,47.3306533],[-122.3467806,47.3306652],[-122.3467558,47.3306728],[-122.3461621,47.3308112],[-122.3461021,47.3308252],[-122.3452759,47.3310308]]},"id":"way/163067704"},{"type":"Feature","properties":{"@id":"way/163555721","highway":"secondary","maxspeed":"35 mph","name":"Southwest Dash Point Road","name_1":"State Route 509","ref":"WA 509","surface":"asphalt","tiger:cfcc":"A31","tiger:county":"King, WA","tiger:name_base":"Dash Point","tiger:name_base_1":"State Route 509","tiger:name_direction_prefix":"SW"},"geometry":{"type":"LineString","coordinates":[[-122.3645327,47.3199689],[-122.3646936,47.3199593],[-122.3647693,47.3199539],[-122.3648589,47.3199392],[-122.3649445,47.3199129],[-122.3650054,47.3198915],[-122.3650657,47.319863],[-122.3651454,47.3198085],[-122.3652124,47.3197529],[-122.3654061,47.3195529],[-122.3654633,47.3194974],[-122.3655058,47.3194635],[-122.3655592,47.319431],[-122.3656025,47.3194125]]},"id":"way/163555721"},{"type":"Feature","properties":{"@id":"way/215292102","highway":"motorway","lanes":2,"maxheight":"default","maxspeed":"60 mph","oneway":"yes","ref":"WA 509","surface":"asphalt"},"geometry":{"type":"LineString","coordinates":[[-122.3292706,47.4765658],[-122.3304923,47.4740801],[-122.3309567,47.4731483],[-122.33117,47.4726208],[-122.3313126,47.4720933],[-122.3325113,47.4668609]]},"id":"way/215292102"},{"type":"Feature","properties":{"@id":"way/215292103","highway":"primary","lanes":5,"lanes:backward":3,"lanes:forward":2,"maxspeed":"40 mph","name":"Des Moines Memorial Drive South","name_1":"State Route 509","oneway":"no","ref":"WA 509","surface":"asphalt","tiger:cfcc":"A31","tiger:county":"King, WA","tiger:name_base":"Des Moines Memorial","tiger:name_base_1":"State Route 509"},"geometry":{"type":"LineString","coordinates":[[-122.3289612,47.4435681],[-122.3289396,47.4434239],[-122.328893,47.4431124]]},"id":"way/215292103"},{"type":"Feature","properties":{"@id":"way/215292104","bridge":"yes","highway":"motorway","lanes":2,"layer":1,"maxspeed":"60 mph","oneway":"yes","ref":"WA 509","surface":"concrete"},"geometry":{"type":"LineString","coordinates":[[-122.3265392,47.4887999],[-122.3267431,47.4882453]]},"id":"way/215292104"},{"type":"Feature","properties":{"@id":"way/241905505","highway":"primary","lanes":3,"lanes:backward":2,"lanes:forward":1,"maxspeed":"30 mph","name":"Marine View Drive South","ref":"WA 509","surface":"asphalt","turn:lanes:backward":"|right"},"geometry":{"type":"LineString","coordinates":[[-122.325105,47.4075018],[-122.3250242,47.407423],[-122.3249515,47.4073405],[-122.3249185,47.4072924],[-122.3248864,47.4072348],[-122.3248603,47.4071873],[-122.3248391,47.4071348]]},"id":"way/241905505"},{"type":"Feature","properties":{"@id":"way/291553270","destination:lanes":"Des Moines;South 188th Street|Normandy Park","highway":"motorway","lanes":2,"maxheight":"default","maxspeed":"60 mph","oneway":"yes","ref":"WA 509","surface":"asphalt","turn:lanes":"|slight_right"},"geometry":{"type":"LineString","coordinates":[[-122.3232122,47.4489767],[-122.3216335,47.4462936],[-122.3213521,47.445802],[-122.3211088,47.4453302],[-122.320769,47.4445602],[-122.3205809,47.4439231],[-122.3205026,47.4434408]]},"id":"way/291553270"},{"type":"Feature","properties":{"@id":"way/305216103","highway":"motorway","hov:lanes":"designated||","lanes":3,"lit":"yes","maxspeed":"60 mph","motor_vehicle:lanes":"no||","oneway":"yes","ref":"WA 509"},"geometry":{"type":"LineString","coordinates":[[-122.3347665,47.5305156],[-122.3346778,47.5299259],[-122.3346463,47.5297166],[-122.334569,47.5294389],[-122.3344537,47.5290359],[-122.3342956,47.5286329],[-122.3341683,47.5282906],[-122.3340671,47.5279791],[-122.333948,47.5276013],[-122.3338788,47.5273253],[-122.3338084,47.5270167]]},"id":"way/305216103"},{"type":"Feature","properties":{"@id":"way/353714434","alt_name":"State Route 509","highway":"primary","lanes":5,"lanes:backward":2,"lanes:forward":3,"maxspeed":"40 mph","name":"Des Moines Memorial Drive South","oneway":"no","ref":"WA 509","sidewalk":"no","surface":"asphalt","tiger:cfcc":"A31","tiger:county":"King, WA","tiger:name_base":"Des Moines Memorial","tiger:name_base_1":"State Route 509","turn:lanes:forward":"left||"},"geometry":{"type":"LineString","coordinates":[[-122.323543,47.4395998],[-122.3239951,47.4398329],[-122.3241132,47.4398938]]},"id":"way/353714434"},{"type":"Feature","properties":{"@id":"way/353714435","alt_name":"State Route 509","highway":"primary","lanes":4,"maxspeed":"40 mph","name":"Des Moines Memorial Drive South","oneway":"no","ref":"WA 509","sidewalk":"no","surface":"asphalt","tiger:cfcc":"A31","tiger:county":"King, WA","tiger:name_base":"Des Moines Memorial","tiger:name_base_1":"State Route 509"},"geometry":{"type":"LineString","coordinates":[[-122.323543,47.4395998],[-122.3234883,47.4395684],[-122.3232674,47.4394411]]},"id":"way/353714435"},{"type":"Feature","properties":{"@id":"way/353714436","alt_name":"State Route 509","highway":"primary","lanes":4,"maxspeed":"40 mph","name":"Des Moines Memorial Drive South","oneway":"no","ref":"WA 509","sidewalk":"no","surface":"asphalt","tiger:cfcc":"A31","tiger:county":"King, WA","tiger:name_base":"Des Moines Memorial","tiger:name_base_1":"State Route 509"},"geometry":{"type":"LineString","coordinates":[[-122.3232674,47.4394411],[-122.3226941,47.4391307],[-122.322493,47.4390188],[-122.3220218,47.4387568],[-122.3218448,47.4386593]]},"id":"way/353714436"},{"type":"Feature","properties":{"@id":"way/353715928","highway":"primary","name":"Ambaum Boulevard South","name_1":"State Route 509","oneway":"no","ref":"WA 509","surface":"asphalt","tiger:cfcc":"A31","tiger:county":"King, WA","tiger:name_base":"Ambaum","tiger:name_base_1":"State Route 509","tiger:name_direction_suffix":"S"},"geometry":{"type":"LineString","coordinates":[[-122.3294074,47.4449579],[-122.3294724,47.4450689],[-122.3295406,47.4451695],[-122.3300151,47.4458697],[-122.3302768,47.4462558],[-122.3303892,47.446412]]},"id":"way/353715928"},{"type":"Feature","properties":{"@id":"way/353715932","highway":"primary","lanes":4,"maxspeed":"40 mph","name":"Des Moines Memorial Drive South","name_1":"State Route 509","oneway":"no","ref":"WA 509","surface":"asphalt","tiger:cfcc":"A31","tiger:county":"King, WA","tiger:name_base":"Des Moines Memorial","tiger:name_base_1":"State Route 509"},"geometry":{"type":"LineString","coordinates":[[-122.328893,47.4431124],[-122.3288484,47.4429504],[-122.328787,47.4428032],[-122.3287532,47.4427047],[-122.3286272,47.4425212],[-122.3284566,47.442346],[-122.3282234,47.4421617],[-122.3281188,47.4421004],[-122.3277615,47.4418907],[-122.3272697,47.4416215],[-122.3268944,47.4414161],[-122.3263444,47.441115],[-122.3262303,47.441052],[-122.3258404,47.4408391],[-122.3257394,47.4407838],[-122.3252406,47.4405108],[-122.3246627,47.4401945]]},"id":"way/353715932"},{"type":"Feature","properties":{"@id":"way/373084938","highway":"primary","maxspeed":"35 mph","name":"South 216th Street","ref":"WA 509","surface":"asphalt","tiger:cfcc":"A41","tiger:county":"King, WA","tiger:name_base":"216th","tiger:name_direction_prefix":"S"},"geometry":{"type":"LineString","coordinates":[[-122.3269211,47.4085272],[-122.3270946,47.4085445],[-122.3272751,47.4085625],[-122.3273662,47.40857],[-122.3274697,47.4085712],[-122.3278003,47.408557],[-122.3290154,47.4084547],[-122.3291527,47.4084431]]},"id":"way/373084938"},{"type":"Feature","properties":{"@id":"way/386590042","cycleway:both":"no","highway":"primary","lanes":2,"maxspeed":"30 mph","name":"Marine View Drive South","ref":"WA 509","surface":"asphalt"},"geometry":{"type":"LineString","coordinates":[[-122.3237809,47.3970181],[-122.3238189,47.397043],[-122.3238821,47.3970779],[-122.323942,47.3971152],[-122.3239986,47.397155],[-122.3240515,47.3971969],[-122.3241006,47.397241],[-122.3241457,47.3972869],[-122.3241807,47.3973273]]},"id":"way/386590042"},{"type":"Feature","properties":{"@id":"way/428003216","cycleway:both":"no","highway":"primary","lanes":3,"lanes:backward":2,"lanes:forward":1,"maxspeed":"30 mph","name":"Marine View Drive South","ref":"WA 509","surface":"asphalt","turn:lanes:backward":"left|"},"geometry":{"type":"LineString","coordinates":[[-122.3243654,47.3979535],[-122.3243774,47.3982333]]},"id":"way/428003216"},{"type":"Feature","properties":{"@id":"way/428003217","cycleway:both":"no","highway":"primary","lanes":4,"lanes:backward":2,"lanes:forward":2,"maxspeed":"30 mph","name":"Marine View Drive South","ref":"WA 509","surface":"asphalt","turn:lanes:backward":"left|"},"geometry":{"type":"LineString","coordinates":[[-122.3243654,47.3979535],[-122.3243509,47.3977472],[-122.3243419,47.3976826],[-122.3243219,47.3975891],[-122.3242962,47.3975151]]},"id":"way/428003217"},{"type":"Feature","properties":{"@id":"way/428004167","highway":"primary","lanes":3,"lanes:backward":2,"lanes:forward":1,"maxspeed":"30 mph","name":"Marine View Drive South","ref":"WA 509","surface":"asphalt","turn:lanes:backward":"left|"},"geometry":{"type":"LineString","coordinates":[[-122.3247774,47.4057854],[-122.3247738,47.4057115],[-122.3247623,47.4054752]]},"id":"way/428004167"},{"type":"Feature","properties":{"@id":"way/428004168","highway":"primary","lanes":3,"lanes:backward":1,"lanes:both_ways":1,"lanes:forward":1,"maxspeed":"30 mph","name":"Marine View Drive South","ref":"WA 509","turn:lanes:both_ways":"left"},"geometry":{"type":"LineString","coordinates":[[-122.3246161,47.4027596],[-122.3246078,47.402632],[-122.3246049,47.4025865],[-122.3245889,47.4022693],[-122.3245871,47.4022341]]},"id":"way/428004168"},{"type":"Feature","properties":{"@id":"way/428004169","highway":"primary","lanes":3,"lanes:backward":1,"lanes:forward":2,"maxspeed":"30 mph","name":"Marine View Drive South","ref":"WA 509","turn:lanes:forward":"left|"},"geometry":{"type":"LineString","coordinates":[[-122.3246622,47.4035789],[-122.3246478,47.4033924],[-122.32464,47.4032649],[-122.324634,47.4031656]]},"id":"way/428004169"},{"type":"Feature","properties":{"@id":"way/428004170","highway":"primary","lanes":3,"lanes:backward":2,"lanes:forward":1,"maxspeed":"30 mph","name":"Marine View Drive South","ref":"WA 509","turn:lanes:backward":"left|"},"geometry":{"type":"LineString","coordinates":[[-122.3247141,47.4045106],[-122.3247098,47.4044182],[-122.3246952,47.4041768]]},"id":"way/428004170"},{"type":"Feature","properties":{"@id":"way/428004171","highway":"primary","lanes":3,"lanes:backward":1,"lanes:both_ways":1,"lanes:forward":1,"maxspeed":"30 mph","name":"Marine View Drive South","ref":"WA 509","surface":"asphalt","turn:lanes:both_ways":"left"},"geometry":{"type":"LineString","coordinates":[[-122.3245478,47.4015242],[-122.3245413,47.4014152],[-122.3245063,47.4008328]]},"id":"way/428004171"},{"type":"Feature","properties":{"@id":"way/428004172","highway":"primary","lanes":3,"lanes:backward":1,"lanes:forward":2,"maxspeed":"30 mph","name":"Marine View Drive South","ref":"WA 509","turn:lanes:forward":"left|"},"geometry":{"type":"LineString","coordinates":[[-122.3245871,47.4022341],[-122.3245747,47.4019884],[-122.3245696,47.4018868]]},"id":"way/428004172"},{"type":"Feature","properties":{"@id":"way/428004173","highway":"primary","lanes":3,"lanes:backward":1,"lanes:forward":2,"maxspeed":"30 mph","name":"Marine View Drive South","ref":"WA 509","surface":"asphalt","turn:lanes:forward":"|right"},"geometry":{"type":"LineString","coordinates":[[-122.3258906,47.4080927],[-122.3255663,47.4078557]]},"id":"way/428004173"},{"type":"Feature","properties":{"@id":"way/428004174","highway":"primary","lanes":3,"lanes:backward":1,"lanes:both_ways":1,"lanes:forward":1,"maxspeed":"30 mph","name":"Marine View Drive South","ref":"WA 509","turn:lanes:both_ways":"left"},"geometry":{"type":"LineString","coordinates":[[-122.3246952,47.4041768],[-122.3246766,47.4038699],[-122.3246701,47.4037632],[-122.3246696,47.4037545],[-122.3246622,47.4035789]]},"id":"way/428004174"},{"type":"Feature","properties":{"@id":"way/428004175","highway":"primary","lanes":3,"lanes:backward":1,"lanes:both_ways":1,"lanes:forward":1,"maxspeed":"30 mph","name":"Marine View Drive South","ref":"WA 509","surface":"asphalt","turn:lanes:both_ways":"left"},"geometry":{"type":"LineString","coordinates":[[-122.3247623,47.4054752],[-122.3247553,47.4053305],[-122.3247507,47.4052362],[-122.3247416,47.4050182],[-122.324729,47.4048048],[-122.3247286,47.4047837]]},"id":"way/428004175"},{"type":"Feature","properties":{"@id":"way/428004176","highway":"primary","lanes":3,"lanes:backward":2,"lanes:forward":1,"maxspeed":"30 mph","name":"Marine View Drive South","ref":"WA 509","turn:lanes:backward":"left|"},"geometry":{"type":"LineString","coordinates":[[-122.324634,47.4031656],[-122.3246299,47.4030834],[-122.3246217,47.4029206],[-122.3246176,47.4028401],[-122.3246161,47.4027596]]},"id":"way/428004176"},{"type":"Feature","properties":{"@id":"way/428004177","highway":"primary","lanes":3,"lanes:backward":2,"lanes:forward":1,"maxspeed":"30 mph","name":"Marine View Drive South","ref":"WA 509","surface":"asphalt","turn:lanes:backward":"left|"},"geometry":{"type":"LineString","coordinates":[[-122.3245696,47.4018868],[-122.3245644,47.4018009],[-122.3245553,47.4016488],[-122.3245478,47.4015242]]},"id":"way/428004177"},{"type":"Feature","properties":{"@id":"way/428004178","highway":"primary","lanes":3,"lanes:backward":1,"lanes:forward":2,"maxspeed":"30 mph","name":"Marine View Drive South","ref":"WA 509","turn:lanes:forward":"left|"},"geometry":{"type":"LineString","coordinates":[[-122.3247286,47.4047837],[-122.3247141,47.4045106]]},"id":"way/428004178"},{"type":"Feature","properties":{"@id":"way/428004179","highway":"primary","lanes":3,"lanes:backward":1,"lanes:forward":2,"maxspeed":"30 mph","name":"Marine View Drive South","ref":"WA 509","surface":"asphalt","turn:lanes:forward":"left|"},"geometry":{"type":"LineString","coordinates":[[-122.3247808,47.4061311],[-122.3247774,47.4057854]]},"id":"way/428004179"},{"type":"Feature","properties":{"@id":"way/428004180","highway":"primary","lanes":4,"lanes:backward":1,"lanes:forward":3,"maxspeed":"30 mph","name":"Marine View Drive South","ref":"WA 509","surface":"asphalt","turn:lanes:forward":"left||right"},"geometry":{"type":"LineString","coordinates":[[-122.3255663,47.4078557],[-122.3254661,47.4077825]]},"id":"way/428004180"},{"type":"Feature","properties":{"@id":"way/428004181","highway":"primary","lanes":3,"lanes:backward":1,"lanes:forward":2,"maxspeed":"30 mph","name":"Marine View Drive South","ref":"WA 509","surface":"asphalt","turn:lanes:forward":"left|"},"geometry":{"type":"LineString","coordinates":[[-122.3245063,47.4008328],[-122.3245037,47.4007939],[-122.3244917,47.4005922],[-122.3244894,47.400554],[-122.3244839,47.4004595]]},"id":"way/428004181"},{"type":"Feature","properties":{"@id":"way/428004182","cycleway:both":"no","highway":"primary","lanes":3,"lanes:backward":1,"lanes:forward":2,"maxspeed":"30 mph","name":"Marine View Drive South","ref":"WA 509","surface":"asphalt","turn:lanes:forward":"left|"},"geometry":{"type":"LineString","coordinates":[[-122.3244719,47.4000997],[-122.3244743,47.4002735],[-122.3244801,47.4003928],[-122.3244839,47.4004595]]},"id":"way/428004182"},{"type":"Feature","properties":{"@id":"way/428004183","highway":"primary","lanes":3,"lanes:backward":1,"lanes:forward":2,"maxspeed":"30 mph","name":"Marine View Drive South","ref":"WA 509","surface":"asphalt","turn:lanes:forward":"left|"},"geometry":{"type":"LineString","coordinates":[[-122.3244117,47.3988848],[-122.3244133,47.3989117],[-122.3244211,47.3990423],[-122.3244306,47.3992003]]},"id":"way/428004183"},{"type":"Feature","properties":{"@id":"way/428004184","cycleway:both":"no","highway":"primary","lanes":3,"lanes:backward":1,"lanes:both_ways":1,"lanes:forward":1,"maxspeed":"30 mph","name":"Marine View Drive South","ref":"WA 509","surface":"asphalt","turn:lanes:both_ways":"left"},"geometry":{"type":"LineString","coordinates":[[-122.3244492,47.3995307],[-122.324456,47.3996748],[-122.3244655,47.3998757],[-122.3244709,47.4000245],[-122.3244719,47.4000997]]},"id":"way/428004184"},{"type":"Feature","properties":{"@id":"way/428004185","cycleway:both":"no","highway":"primary","lanes":2,"maxspeed":"30 mph","name":"Marine View Drive South","ref":"WA 509","surface":"asphalt"},"geometry":{"type":"LineString","coordinates":[[-122.3243774,47.3982333],[-122.3243833,47.3983715],[-122.3243897,47.3985208],[-122.3244015,47.3987168],[-122.3244117,47.3988848]]},"id":"way/428004185"},{"type":"Feature","properties":{"@id":"way/428004186","cycleway:both":"no","highway":"primary","lanes":3,"lanes:backward":2,"lanes:forward":1,"maxspeed":"30 mph","name":"Marine View Drive South","ref":"WA 509","surface":"asphalt","turn:lanes:backward":"left|"},"geometry":{"type":"LineString","coordinates":[[-122.3244306,47.3992003],[-122.3244356,47.399277],[-122.3244363,47.3992882],[-122.3244414,47.3993655],[-122.3244492,47.3995307]]},"id":"way/428004186"},{"type":"Feature","properties":{"@id":"way/428004187","highway":"primary","lanes":2,"maxspeed":"30 mph","name":"Marine View Drive South","ref":"WA 509","surface":"asphalt"},"geometry":{"type":"LineString","coordinates":[[-122.3248391,47.4071348],[-122.3248327,47.4071102],[-122.3248113,47.4070174],[-122.3247979,47.4069194]]},"id":"way/428004187"},{"type":"Feature","properties":{"@id":"way/428009192","highway":"primary","lanes":3,"lanes:backward":1,"lanes:forward":2,"maxspeed":"30 mph","name":"Marine View Drive South","ref":"WA 509","surface":"asphalt","turn:lanes:forward":"through|right"},"geometry":{"type":"LineString","coordinates":[[-122.3242962,47.3975151],[-122.3242645,47.3974506],[-122.324226,47.3973879],[-122.3241807,47.3973273]]},"id":"way/428009192"},{"type":"Feature","properties":{"@id":"way/428021332","highway":"motorway","hov:lanes":"designated||","hov:minimum":2,"lanes":3,"lit":"yes","maxspeed":"60 mph","motor_vehicle:lanes":"no||","oneway":"yes","ref":"WA 509"},"geometry":{"type":"LineString","coordinates":[[-122.3347284,47.5329456],[-122.3347909,47.5321273]]},"id":"way/428021332"},{"type":"Feature","properties":{"@id":"way/428033861","highway":"secondary","maxspeed":"40 mph","name":"South Dash Point Road","name_1":"State Route 509","ref":"WA 509","tiger:cfcc":"A31","tiger:county":"King, WA","tiger:name_base":"Dash Point","tiger:name_base_1":"State Route 509","tiger:name_direction_prefix":"S"},"geometry":{"type":"LineString","coordinates":[[-122.3127114,47.3358467],[-122.3127687,47.3358525],[-122.3127992,47.3358586]]},"id":"way/428033861"},{"type":"Feature","properties":{"@id":"way/428033862","highway":"secondary","lanes":5,"lanes:backward":3,"lanes:forward":2,"maxspeed":"40 mph","name":"South Dash Point Road","name_1":"State Route 509","ref":"WA 509","tiger:cfcc":"A31","tiger:county":"King, WA","tiger:name_base":"Dash Point","tiger:name_base_1":"State Route 509","tiger:name_direction_prefix":"S","turn:lanes:backward":"left||right"},"geometry":{"type":"LineString","coordinates":[[-122.312017,47.3358425],[-122.312195,47.3358395]]},"id":"way/428033862"},{"type":"Feature","properties":{"@id":"way/428043028","highway":"primary","lanes":2,"maxspeed":"35 mph","name":"1st Avenue South","name_1":"State Route 509","ref":"WA 509","surface":"asphalt","tiger:cfcc":"A31","tiger:county":"King, WA","tiger:name_base":"1st","tiger:name_base_1":"State Route 509","tiger:name_direction_suffix":"S"},"geometry":{"type":"LineString","coordinates":[[-122.3348124,47.4134188],[-122.3346871,47.4127131],[-122.3346416,47.4124891],[-122.334636,47.4124616],[-122.3345982,47.4122758],[-122.3345739,47.4121562],[-122.3345095,47.411777],[-122.3344336,47.4114583],[-122.334336,47.4112624],[-122.3342339,47.4111377],[-122.3342163,47.4111171],[-122.3341775,47.4110688],[-122.3340561,47.4109512],[-122.3340226,47.4109259],[-122.3339543,47.4108742],[-122.3337534,47.4107463],[-122.3335828,47.4106289],[-122.333461,47.4105194],[-122.3333654,47.4104086],[-122.3332782,47.4102888],[-122.333195,47.4101318],[-122.3331373,47.4099756],[-122.333082,47.4096665],[-122.3329399,47.4089727],[-122.3329147,47.4088497],[-122.3328653,47.4087128],[-122.3328042,47.4085818]]},"id":"way/428043028"},{"type":"Feature","properties":{"@id":"way/428043029","highway":"primary","lanes":3,"lanes:backward":2,"lanes:forward":1,"maxspeed":"35 mph","name":"1st Avenue South","name_1":"State Route 509","ref":"WA 509","surface":"asphalt","tiger:cfcc":"A31","tiger:county":"King, WA","tiger:name_base":"1st","tiger:name_base_1":"State Route 509","tiger:name_direction_suffix":"S","turn:lanes:backward":"left|"},"geometry":{"type":"LineString","coordinates":[[-122.335229,47.4232767],[-122.3352375,47.4227479]]},"id":"way/428043029"},{"type":"Feature","properties":{"@id":"way/428043030","highway":"primary","lanes":3,"lanes:backward":1,"lanes:forward":2,"maxspeed":"35 mph","name":"1st Avenue South","name_1":"State Route 509","ref":"WA 509","surface":"asphalt","tiger:cfcc":"A31","tiger:county":"King, WA","tiger:name_base":"1st","tiger:name_base_1":"State Route 509","tiger:name_direction_suffix":"S","turn:lanes:forward":"left|"},"geometry":{"type":"LineString","coordinates":[[-122.335293,47.4165843],[-122.3352944,47.4162906],[-122.3352956,47.4160416]]},"id":"way/428043030"},{"type":"Feature","properties":{"@id":"way/428043031","highway":"primary","lanes":3,"lanes:backward":2,"lanes:forward":1,"maxspeed":"35 mph","name":"1st Avenue South","name_1":"State Route 509","ref":"WA 509","surface":"asphalt","tiger:cfcc":"A31","tiger:county":"King, WA","tiger:name_base":"1st","tiger:name_base_1":"State Route 509","tiger:name_direction_suffix":"S","turn:lanes:backward":"left|"},"geometry":{"type":"LineString","coordinates":[[-122.3352956,47.4160416],[-122.3352415,47.4157476],[-122.3352099,47.4155763]]},"id":"way/428043031"},{"type":"Feature","properties":{"@id":"way/428043032","highway":"primary","lanes":2,"maxspeed":"35 mph","name":"1st Avenue South","name_1":"State Route 509","ref":"WA 509","surface":"asphalt","tiger:cfcc":"A31","tiger:county":"King, WA","tiger:name_base":"1st","tiger:name_base_1":"State Route 509","tiger:name_direction_suffix":"S"},"geometry":{"type":"LineString","coordinates":[[-122.3352375,47.4227479],[-122.3352389,47.4226374],[-122.335245,47.4222792],[-122.3352505,47.4219241],[-122.3352573,47.4215105],[-122.3352577,47.4214854],[-122.335259,47.4214069],[-122.3352644,47.4210713],[-122.3352678,47.4209547],[-122.3352704,47.420654],[-122.3352778,47.4198193],[-122.3352839,47.4191227],[-122.3352845,47.4190603],[-122.3352871,47.4187629],[-122.3352888,47.4185755],[-122.3352889,47.4184723],[-122.3352882,47.4182894],[-122.3352885,47.4179873],[-122.3352896,47.4173981],[-122.3352895,47.4173189],[-122.3352916,47.416869],[-122.335293,47.4165843]]},"id":"way/428043032"},{"type":"Feature","properties":{"@id":"way/428043397","cycleway":"lane","highway":"primary","lanes":4,"lanes:backward":1,"lanes:forward":3,"maxspeed":"35 mph","name":"1st Avenue South","name_1":"State Route 509","ref":"WA 509","surface":"asphalt","tiger:cfcc":"A31","tiger:county":"King, WA","tiger:name_base":"1st","tiger:name_base_1":"State Route 509","tiger:name_direction_suffix":"S","turn:lanes:forward":"left||through;right"},"geometry":{"type":"LineString","coordinates":[[-122.3353053,47.424421],[-122.3352953,47.4242576],[-122.3352764,47.4239497]]},"id":"way/428043397"},{"type":"Feature","properties":{"@id":"way/428043398","cycleway:right":"lane","highway":"primary","lanes":2,"maxspeed":"35 mph","name":"1st Avenue South","name_1":"State Route 509","oneway":"yes","ref":"WA 509","surface":"asphalt","tiger:cfcc":"A31","tiger:county":"King, WA","tiger:name_base":"1st","tiger:name_base_1":"State Route 509","tiger:name_direction_suffix":"S"},"geometry":{"type":"LineString","coordinates":[[-122.335229,47.4232767],[-122.3351703,47.4234153],[-122.3351881,47.4236268]]},"id":"way/428043398"},{"type":"Feature","properties":{"@id":"way/428043399","cycleway:right":"lane","highway":"primary","lanes":2,"maxspeed":"35 mph","name":"1st Avenue South","name_1":"State Route 509","oneway":"yes","ref":"WA 509","surface":"asphalt","tiger:cfcc":"A31","tiger:county":"King, WA","tiger:name_base":"1st","tiger:name_base_1":"State Route 509","tiger:name_direction_suffix":"S","turn:lanes":"left|"},"geometry":{"type":"LineString","coordinates":[[-122.3351881,47.4236268],[-122.3351998,47.4238726],[-122.3352764,47.4239497]]},"id":"way/428043399"},{"type":"Feature","properties":{"@id":"way/428043400","highway":"primary","lanes":2,"maxspeed":"35 mph","name":"1st Avenue South","name_1":"State Route 509","oneway":"yes","ref":"WA 509","surface":"asphalt","tiger:cfcc":"A31","tiger:county":"King, WA","tiger:name_base":"1st","tiger:name_base_1":"State Route 509","tiger:name_direction_suffix":"S","turn:lanes":"|right"},"geometry":{"type":"LineString","coordinates":[[-122.3353132,47.4236029],[-122.335299,47.4234035],[-122.335229,47.4232767]]},"id":"way/428043400"},{"type":"Feature","properties":{"@id":"way/428043401","cycleway:right":"lane","highway":"primary","lanes":2,"maxspeed":"35 mph","name":"1st Avenue South","name_1":"State Route 509","oneway":"yes","ref":"WA 509","surface":"asphalt","tiger:cfcc":"A31","tiger:county":"King, WA","tiger:name_base":"1st","tiger:name_base_1":"State Route 509","tiger:name_direction_suffix":"S"},"geometry":{"type":"LineString","coordinates":[[-122.3352764,47.4239497],[-122.3353191,47.4238708],[-122.3353138,47.4236104],[-122.3353132,47.4236029]]},"id":"way/428043401"},{"type":"Feature","properties":{"@id":"way/428045017","highway":"secondary","maxspeed":"40 mph","name":"South Dash Point Road","name_1":"State Route 509","ref":"WA 509","tiger:cfcc":"A31","tiger:county":"King, WA","tiger:name_base":"Dash Point","tiger:name_base_1":"State Route 509","tiger:name_direction_prefix":"S"},"geometry":{"type":"LineString","coordinates":[[-122.3127992,47.3358586],[-122.3128464,47.3358679],[-122.3128917,47.3358769],[-122.3130061,47.3359094]]},"id":"way/428045017"},{"type":"Feature","properties":{"@id":"way/428045018","highway":"secondary","lanes":5,"lanes:backward":2,"lanes:forward":3,"maxspeed":"40 mph","name":"South Dash Point Road","name_1":"State Route 509","ref":"WA 509","tiger:cfcc":"A31","tiger:county":"King, WA","tiger:name_base":"Dash Point","tiger:name_base_1":"State Route 509","tiger:name_direction_prefix":"S","turn:lanes:forward":"left||right"},"geometry":{"type":"LineString","coordinates":[[-122.3130061,47.3359094],[-122.3131151,47.3359571],[-122.3132216,47.3360191],[-122.3132556,47.3360505],[-122.3133639,47.3361498]]},"id":"way/428045018"},{"type":"Feature","properties":{"@id":"way/428045019","bicycle":"designated","cycleway:left":"lane","highway":"secondary","lanes":3,"lanes:backward":2,"lanes:forward":1,"maxspeed":"40 mph","name":"South Dash Point Road","name_1":"State Route 509","ref":"WA 509","tiger:cfcc":"A31","tiger:county":"King, WA","tiger:name_base":"Dash Point","tiger:name_base_1":"State Route 509","tiger:name_direction_prefix":"S","turn:lanes:backward":"left|"},"geometry":{"type":"LineString","coordinates":[[-122.3133639,47.3361498],[-122.3134076,47.3361908],[-122.3134757,47.3362449],[-122.3135455,47.3362994],[-122.3136513,47.3363757],[-122.3137706,47.3364487],[-122.3138684,47.3364998],[-122.3139816,47.3365488],[-122.3140845,47.3365806],[-122.3141521,47.3365933]]},"id":"way/428045019"},{"type":"Feature","properties":{"@id":"way/428056170","highway":"primary","lanes":5,"lanes:backward":2,"lanes:forward":3,"maxspeed":"35 mph","name":"1st Avenue South","name_1":"State Route 509","oneway":"no","ref":"WA 509","sidewalk":"separate","surface":"asphalt","tiger:cfcc":"A31","tiger:county":"King, WA","tiger:name_base":"1st","tiger:name_base_1":"State Route 509","tiger:name_direction_suffix":"S","turn:lanes:forward":"left|none|right"},"geometry":{"type":"LineString","coordinates":[[-122.3343208,47.4421901],[-122.334343,47.4420134],[-122.3343497,47.4419595],[-122.3343693,47.4418031],[-122.3343875,47.4416583]]},"id":"way/428056170"},{"type":"Feature","properties":{"@id":"way/428056171","highway":"primary","lanes":2,"lanes:backward":1,"lanes:forward":1,"maxspeed":"35 mph","name":"1st Avenue South","name_1":"State Route 509","oneway":"no","ref":"WA 509","surface":"asphalt","tiger:cfcc":"A31","tiger:county":"King, WA","tiger:name_base":"1st","tiger:name_base_1":"State Route 509","tiger:name_direction_suffix":"S"},"geometry":{"type":"LineString","coordinates":[[-122.335329,47.434645],[-122.335405,47.434202],[-122.3354299,47.4340569]]},"id":"way/428056171"},{"type":"Feature","properties":{"@id":"way/428056172","highway":"primary","lanes":3,"lanes:backward":1,"lanes:forward":2,"maxspeed":"35 mph","name":"1st Avenue South","name_1":"State Route 509","oneway":"no","ref":"WA 509","surface":"asphalt","tiger:cfcc":"A31","tiger:county":"King, WA","tiger:name_base":"1st","tiger:name_base_1":"State Route 509","tiger:name_direction_suffix":"S","turn:lanes:forward":"left|"},"geometry":{"type":"LineString","coordinates":[[-122.335283,47.4350384],[-122.3352971,47.4349246],[-122.3353208,47.4347152],[-122.335329,47.434645]]},"id":"way/428056172"},{"type":"Feature","properties":{"@id":"way/428056173","highway":"primary","lanes":3,"lanes:backward":2,"lanes:forward":1,"maxspeed":"35 mph","name":"1st Avenue South","name_1":"State Route 509","oneway":"no","ref":"WA 509","surface":"asphalt","tiger:cfcc":"A31","tiger:county":"King, WA","tiger:name_base":"1st","tiger:name_base_1":"State Route 509","tiger:name_direction_suffix":"S","turn:lanes:backward":"left|"},"geometry":{"type":"LineString","coordinates":[[-122.3354299,47.4340569],[-122.3354822,47.4336763]]},"id":"way/428056173"},{"type":"Feature","properties":{"@id":"way/428056174","highway":"primary","lanes":3,"lanes:backward":1,"lanes:forward":2,"maxspeed":"35 mph","name":"1st Avenue South","name_1":"State Route 509","oneway":"no","ref":"WA 509","surface":"asphalt","tiger:cfcc":"A31","tiger:county":"King, WA","tiger:name_base":"1st","tiger:name_base_1":"State Route 509","tiger:name_direction_suffix":"S","turn:lanes:forward":"left|"},"geometry":{"type":"LineString","coordinates":[[-122.3357448,47.4316969],[-122.3357707,47.4313897],[-122.3357812,47.4312653]]},"id":"way/428056174"},{"type":"Feature","properties":{"@id":"way/428056175","highway":"primary","lanes":4,"lanes:backward":3,"lanes:forward":1,"maxspeed":"35 mph","name":"1st Avenue South","name_1":"State Route 509","oneway":"no","ref":"WA 509","surface":"asphalt","tiger:cfcc":"A31","tiger:county":"King, WA","tiger:name_base":"1st","tiger:name_base_1":"State Route 509","tiger:name_direction_suffix":"S","turn:lanes:backward":"left|none|through;right"},"geometry":{"type":"LineString","coordinates":[[-122.3343875,47.4416583],[-122.3344005,47.4415685],[-122.3344066,47.4415265],[-122.3344452,47.4412591]]},"id":"way/428056175"},{"type":"Feature","properties":{"@id":"way/428056176","highway":"primary","lanes":2,"lanes:backward":1,"lanes:forward":1,"maxspeed":"35 mph","name":"1st Avenue South","name_1":"State Route 509","oneway":"no","ref":"WA 509","surface":"asphalt","tiger:cfcc":"A31","tiger:county":"King, WA","tiger:name_base":"1st","tiger:name_base_1":"State Route 509","tiger:name_direction_suffix":"S"},"geometry":{"type":"LineString","coordinates":[[-122.3354822,47.4336763],[-122.3355533,47.4331587],[-122.3356094,47.4327507],[-122.3357368,47.4317594],[-122.3357448,47.4316969]]},"id":"way/428056176"},{"type":"Feature","properties":{"@id":"way/428056177","highway":"primary","lanes":2,"maxspeed":"35 mph","name":"1st Avenue South","name_1":"State Route 509","oneway":"no","ref":"WA 509","surface":"asphalt","tiger:cfcc":"A31","tiger:county":"King, WA","tiger:name_base":"1st","tiger:name_base_1":"State Route 509","tiger:name_direction_suffix":"S"},"geometry":{"type":"LineString","coordinates":[[-122.3345719,47.4403826],[-122.3346357,47.4399416],[-122.3346585,47.439784],[-122.3346785,47.4396455],[-122.3347535,47.4391272],[-122.3347706,47.4390091],[-122.3348061,47.4387636],[-122.334814,47.4387089],[-122.3348318,47.4385877],[-122.3348892,47.4381969],[-122.3349593,47.4376912],[-122.3350356,47.4371088],[-122.3350741,47.4368039],[-122.3351127,47.4365061],[-122.3351193,47.4364548],[-122.3351286,47.4363574],[-122.3352382,47.4354197],[-122.335283,47.4350384]]},"id":"way/428056177"},{"type":"Feature","properties":{"@id":"way/428056178","cycleway":"lane","highway":"primary","lanes":3,"lanes:backward":1,"lanes:both_ways":1,"lanes:forward":1,"maxspeed":"35 mph","name":"1st Avenue South","name_1":"State Route 509","ref":"WA 509","surface":"asphalt","tiger:cfcc":"A31","tiger:county":"King, WA","tiger:name_base":"1st","tiger:name_base_1":"State Route 509","tiger:name_direction_suffix":"S","turn:lanes:both_ways":"left"},"geometry":{"type":"LineString","coordinates":[[-122.3357611,47.430901],[-122.3356652,47.4292934],[-122.3356247,47.4286146],[-122.3356028,47.4282403],[-122.3355846,47.4279392],[-122.3355769,47.4278128],[-122.3355473,47.4273251],[-122.3355181,47.4269223],[-122.3354753,47.4263311],[-122.3353792,47.4256286],[-122.3353646,47.4253894]]},"id":"way/428056178"},{"type":"Feature","properties":{"@id":"way/428056312","highway":"primary","lanes":5,"lanes:backward":2,"lanes:forward":3,"maxspeed":"40 mph","name":"Des Moines Memorial Drive South","name_1":"State Route 509","oneway":"no","ref":"WA 509","surface":"asphalt","tiger:cfcc":"A31","tiger:county":"King, WA","tiger:name_base":"Des Moines Memorial","tiger:name_base_1":"State Route 509","turn:lanes:forward":"left||"},"geometry":{"type":"LineString","coordinates":[[-122.3246627,47.4401945],[-122.3244784,47.4400936],[-122.3242262,47.4399556],[-122.3241132,47.4398938]]},"id":"way/428056312"},{"type":"Feature","properties":{"@id":"way/428058017","highway":"primary","name":"Ambaum Boulevard South","name_1":"State Route 509","oneway":"no","ref":"WA 509","surface":"asphalt","tiger:cfcc":"A31","tiger:county":"King, WA","tiger:name_base":"Ambaum","tiger:name_base_1":"State Route 509","tiger:name_direction_suffix":"S"},"geometry":{"type":"LineString","coordinates":[[-122.3290624,47.4440237],[-122.3290982,47.4441848]]},"id":"way/428058017"},{"type":"Feature","properties":{"@id":"way/428058094","highway":"primary","lanes":5,"lanes:backward":2,"lanes:forward":3,"name":"Ambaum Boulevard South","name_1":"State Route 509","oneway":"no","ref":"WA 509","surface":"asphalt","tiger:cfcc":"A31","tiger:county":"King, WA","tiger:name_base":"Ambaum","tiger:name_base_1":"State Route 509","tiger:name_direction_suffix":"S","turn:lanes:forward":"left||"},"geometry":{"type":"LineString","coordinates":[[-122.3292051,47.444524],[-122.3293026,47.4447573]]},"id":"way/428058094"},{"type":"Feature","properties":{"@id":"way/428058095","highway":"primary","lanes":5,"lanes:backward":3,"lanes:forward":2,"name":"Ambaum Boulevard South","name_1":"State Route 509","oneway":"no","ref":"WA 509","surface":"asphalt","tiger:cfcc":"A31","tiger:county":"King, WA","tiger:name_base":"Ambaum","tiger:name_base_1":"State Route 509","tiger:name_direction_suffix":"S","turn:lanes:backward":"left||"},"geometry":{"type":"LineString","coordinates":[[-122.3293026,47.4447573],[-122.3294074,47.4449579]]},"id":"way/428058095"},{"type":"Feature","properties":{"@id":"way/428058096","highway":"primary","name":"Ambaum Boulevard South","name_1":"State Route 509","oneway":"no","ref":"WA 509","surface":"asphalt","tiger:cfcc":"A31","tiger:county":"King, WA","tiger:name_base":"Ambaum","tiger:name_base_1":"State Route 509","tiger:name_direction_suffix":"S"},"geometry":{"type":"LineString","coordinates":[[-122.3290982,47.4441848],[-122.3291538,47.4443683]]},"id":"way/428058096"},{"type":"Feature","properties":{"@id":"way/428058097","highway":"primary","lanes":4,"lanes:backward":2,"lanes:forward":2,"name":"South 174th Street","name_1":"State Route 509","ref":"WA 509","surface":"asphalt","tiger:cfcc":"A31","tiger:county":"King, WA","tiger:name_base":"174th","tiger:name_base_1":"State Route 509","tiger:name_direction_prefix":"S","turn:lanes:backward":"left|right"},"geometry":{"type":"LineString","coordinates":[[-122.3339415,47.4475046],[-122.3337823,47.4475024],[-122.3331572,47.447494]]},"id":"way/428058097"},{"type":"Feature","properties":{"@id":"way/428248332","highway":"primary","lanes":2,"maxspeed":"35 mph","name":"1st Avenue South","name_1":"State Route 509","ref":"WA 509","surface":"asphalt","tiger:cfcc":"A31","tiger:county":"King, WA","tiger:name_base":"1st","tiger:name_base_1":"State Route 509","tiger:name_direction_suffix":"S"},"geometry":{"type":"LineString","coordinates":[[-122.3352099,47.4155763],[-122.3350061,47.414471],[-122.3348959,47.4138721],[-122.3348634,47.4136954],[-122.3348124,47.4134188]]},"id":"way/428248332"},{"type":"Feature","properties":{"@id":"way/428291012","cycleway":"lane","highway":"primary","lanes":4,"maxspeed":"35 mph","name":"1st Avenue South","name_1":"State Route 509","ref":"WA 509","surface":"asphalt","tiger:cfcc":"A31","tiger:county":"King, WA","tiger:name_base":"1st","tiger:name_base_1":"State Route 509","tiger:name_direction_suffix":"S"},"geometry":{"type":"LineString","coordinates":[[-122.3353646,47.4253894],[-122.3353385,47.4249704],[-122.3353132,47.4245508],[-122.3353053,47.424421]]},"id":"way/428291012"},{"type":"Feature","properties":{"@id":"way/428291016","highway":"primary","lanes":5,"lanes:backward":2,"lanes:forward":3,"maxspeed":"35 mph","name":"1st Avenue South","name_1":"State Route 509","oneway":"no","ref":"WA 509","sidewalk":"separate","surface":"asphalt","tiger:cfcc":"A31","tiger:county":"King, WA","tiger:name_base":"1st","tiger:name_base_1":"State Route 509","tiger:name_direction_suffix":"S","turn:lanes:forward":"left||right"},"geometry":{"type":"LineString","coordinates":[[-122.3342883,47.4424488],[-122.3342999,47.4423568]]},"id":"way/428291016"},{"type":"Feature","properties":{"@id":"way/428291020","highway":"primary","lanes":4,"lanes:backward":2,"lanes:forward":2,"maxspeed":"35 mph","name":"1st Avenue South","name_1":"State Route 509","oneway":"no","ref":"WA 509","surface":"asphalt","tiger:cfcc":"A31","tiger:county":"King, WA","tiger:name_base":"1st","tiger:name_base_1":"State Route 509","tiger:name_direction_suffix":"S"},"geometry":{"type":"LineString","coordinates":[[-122.3339415,47.4475046],[-122.3339487,47.4453361],[-122.333949,47.4452382]]},"id":"way/428291020"},{"type":"Feature","properties":{"@id":"way/428291024","highway":"primary","lanes":5,"lanes:backward":3,"lanes:forward":2,"maxspeed":"35 mph","name":"1st Avenue South","name_1":"State Route 509","oneway":"no","ref":"WA 509","sidewalk":"separate","surface":"asphalt","tiger:cfcc":"A31","tiger:county":"King, WA","tiger:name_base":"1st","tiger:name_base_1":"State Route 509","tiger:name_direction_suffix":"S","turn:lanes:backward":"left||"},"geometry":{"type":"LineString","coordinates":[[-122.333949,47.4452382],[-122.3339568,47.4451689],[-122.3339838,47.4449296]]},"id":"way/428291024"},{"type":"Feature","properties":{"@id":"way/428291028","cycleway":"lane","highway":"primary","lanes":3,"lanes:backward":2,"lanes:forward":1,"maxspeed":"35 mph","name":"1st Avenue South","name_1":"State Route 509","ref":"WA 509","surface":"asphalt","tiger:cfcc":"A31","tiger:county":"King, WA","tiger:name_base":"1st","tiger:name_base_1":"State Route 509","tiger:name_direction_suffix":"S","turn:lanes:backward":"left|"},"geometry":{"type":"LineString","coordinates":[[-122.3357812,47.4312653],[-122.3357708,47.4310642],[-122.3357635,47.4309422],[-122.3357611,47.430901]]},"id":"way/428291028"},{"type":"Feature","properties":{"@id":"way/481592487","highway":"motorway","lanes":3,"maxspeed":"60 mph","oneway":"yes","ref":"WA 509","surface":"asphalt","turn:lanes":"||merge_to_left"},"geometry":{"type":"LineString","coordinates":[[-122.3267959,47.4550848],[-122.3263228,47.4543098]]},"id":"way/481592487"},{"type":"Feature","properties":{"@id":"way/481592489","highway":"motorway","lanes":2,"maxspeed":"60 mph","oneway":"yes","placement":"transition","ref":"WA 509","surface":"asphalt"},"geometry":{"type":"LineString","coordinates":[[-122.3299079,47.4607825],[-122.330872,47.4623825]]},"id":"way/481592489"},{"type":"Feature","properties":{"@id":"way/481592490","highway":"motorway","lanes":2,"maxspeed":"60 mph","oneway":"yes","ref":"WA 509","surface":"asphalt"},"geometry":{"type":"LineString","coordinates":[[-122.3310545,47.4722873],[-122.3309732,47.4725838],[-122.3307725,47.4731147],[-122.3301252,47.4744886],[-122.3292495,47.4761391]]},"id":"way/481592490"},{"type":"Feature","properties":{"@id":"way/557625510","highway":"motorway","lanes":2,"maxspeed":"60 mph","oneway":"yes","ref":"WA 509","surface":"asphalt"},"geometry":{"type":"LineString","coordinates":[[-122.32034,47.4435341],[-122.3205805,47.4444951],[-122.3207506,47.4449414],[-122.3209516,47.4454006],[-122.3213644,47.446115],[-122.3230518,47.4490197],[-122.3239209,47.4504917],[-122.3249084,47.4521977]]},"id":"way/557625510"},{"type":"Feature","properties":{"@id":"way/577959747","cycleway":"shoulder","highway":"secondary","maxspeed":"35 mph","name":"Southwest Dash Point Road","name_1":"State Route 509","ref":"WA 509","surface":"asphalt","tiger:cfcc":"A31","tiger:county":"King, WA","tiger:name_base":"Dash Point","tiger:name_base_1":"State Route 509","tiger:name_direction_prefix":"SW"},"geometry":{"type":"LineString","coordinates":[[-122.3567807,47.3220066],[-122.3570128,47.3219022],[-122.3573368,47.3217737],[-122.3576684,47.3216612],[-122.3580633,47.3215522],[-122.3585683,47.3214249],[-122.3590218,47.3213095],[-122.3594221,47.3212101],[-122.3598282,47.3211004],[-122.3599422,47.3210642],[-122.3599995,47.3210459],[-122.3601022,47.3210039],[-122.3602052,47.3209548],[-122.3604302,47.3208175],[-122.3605056,47.3207693],[-122.3605793,47.3207102]]},"id":"way/577959747"},{"type":"Feature","properties":{"@id":"way/621378236","highway":"motorway","lanes":3,"lit":"yes","maxspeed":"60 mph","oneway":"yes","ref":"WA 509","surface":"asphalt","turn:lanes":"||right"},"geometry":{"type":"LineString","coordinates":[[-122.3338516,47.5280404],[-122.3339854,47.5283979]]},"id":"way/621378236"},{"type":"Feature","properties":{"@id":"way/621396751","highway":"motorway","lanes":2,"maxspeed":"60 mph","oneway":"yes","ref":"WA 509","surface":"asphalt"},"geometry":{"type":"LineString","coordinates":[[-122.3267431,47.4882453],[-122.3271205,47.4871431],[-122.32726,47.486487],[-122.3273949,47.4855495]]},"id":"way/621396751"},{"type":"Feature","properties":{"@id":"way/621396756","highway":"motorway","lanes":2,"maxspeed":"60 mph","oneway":"yes","ref":"WA 509","surface":"asphalt"},"geometry":{"type":"LineString","coordinates":[[-122.3271647,47.4856039],[-122.3270918,47.4864781],[-122.3269566,47.4871054],[-122.3265835,47.4882561]]},"id":"way/621396756"},{"type":"Feature","properties":{"@id":"way/621396759","highway":"motorway","lanes":2,"maxspeed":"60 mph","oneway":"yes","ref":"WA 509","surface":"asphalt"},"geometry":{"type":"LineString","coordinates":[[-122.3264014,47.4887802],[-122.3257397,47.4906596],[-122.3252293,47.4921385]]},"id":"way/621396759"},{"type":"Feature","properties":{"@id":"way/621396760","highway":"motorway","lanes":2,"maxspeed":"60 mph","oneway":"yes","ref":"WA 509","surface":"asphalt"},"geometry":{"type":"LineString","coordinates":[[-122.3255106,47.4918693],[-122.3258851,47.4906808],[-122.3265392,47.4887999]]},"id":"way/621396760"},{"type":"Feature","properties":{"@id":"way/621396776","highway":"motorway","lanes":2,"maxheight":"default","maxspeed":"60 mph","oneway":"yes","ref":"WA 509","surface":"asphalt"},"geometry":{"type":"LineString","coordinates":[[-122.3273949,47.4855495],[-122.327365,47.4844567],[-122.3274419,47.4816491],[-122.3275521,47.480446],[-122.3277739,47.4796671],[-122.3286021,47.477951]]},"id":"way/621396776"},{"type":"Feature","properties":{"@id":"way/621396777","destination:lanes":"|none;Renton","highway":"motorway","lanes":2,"maxspeed":"60 mph","oneway":"yes","ref":"WA 509","surface":"asphalt","turn:lanes":"|through;slight_right"},"geometry":{"type":"LineString","coordinates":[[-122.330872,47.4623825],[-122.331232,47.4630164],[-122.3320089,47.4643268],[-122.3323085,47.4651029],[-122.3324344,47.4657834],[-122.3323207,47.4670694],[-122.332173,47.4675875]]},"id":"way/621396777"},{"type":"Feature","properties":{"@id":"way/623295820","cycleway":"shoulder","highway":"secondary","maxspeed":"35 mph","name":"Southwest Dash Point Road","name_1":"State Route 509","ref":"WA 509","surface":"asphalt","tiger:cfcc":"A31","tiger:county":"King, WA","tiger:name_base":"Dash Point","tiger:name_base_1":"State Route 509","tiger:name_direction_prefix":"SW"},"geometry":{"type":"LineString","coordinates":[[-122.3359601,47.3319493],[-122.3357248,47.3316971],[-122.3352876,47.3311445],[-122.3351455,47.3309845]]},"id":"way/623295820"},{"type":"Feature","properties":{"@id":"way/623295822","cycleway":"shoulder","fixme":"Has concrete median","highway":"secondary","maxspeed":"35 mph","name":"Southwest Dash Point Road","name_1":"State Route 509","ref":"WA 509","surface":"asphalt","tiger:cfcc":"A31","tiger:county":"King, WA","tiger:name_base":"Dash Point","tiger:name_base_1":"State Route 509","tiger:name_direction_prefix":"SW"},"geometry":{"type":"LineString","coordinates":[[-122.3567807,47.3220066],[-122.356438,47.3222029],[-122.3561982,47.3223882]]},"id":"way/623295822"},{"type":"Feature","properties":{"@id":"way/631741898","highway":"primary","lanes":4,"lanes:backward":2,"lanes:both_ways":1,"lanes:forward":1,"maxspeed":"35 mph","name":"1st Avenue South","name_1":"State Route 509","oneway":"no","ref":"WA 509","surface":"asphalt","tiger:cfcc":"A31","tiger:county":"King, WA","tiger:name_base":"1st","tiger:name_base_1":"State Route 509","tiger:name_direction_suffix":"S","turn:lanes:both_ways":"left"},"geometry":{"type":"LineString","coordinates":[[-122.3344452,47.4412591],[-122.3344623,47.4411407],[-122.3344735,47.4410605],[-122.334518,47.4407511],[-122.3345719,47.4403826]]},"id":"way/631741898"},{"type":"Feature","properties":{"@id":"way/737671378","highway":"primary","name":"Ambaum Boulevard South","name_1":"State Route 509","oneway":"no","ref":"WA 509","surface":"asphalt","tiger:cfcc":"A31","tiger:county":"King, WA","tiger:name_base":"Ambaum","tiger:name_base_1":"State Route 509","tiger:name_direction_suffix":"S"},"geometry":{"type":"LineString","coordinates":[[-122.3291538,47.4443683],[-122.32919,47.4444879],[-122.3292051,47.444524]]},"id":"way/737671378"},{"type":"Feature","properties":{"@id":"way/761552379","cycleway":"shoulder","highway":"secondary","lanes":2,"maxspeed":"40 mph","name":"South Dash Point Road","name_1":"State Route 509","ref":"WA 509","surface":"asphalt","tiger:cfcc":"A31","tiger:county":"King, WA","tiger:name_base":"Dash Point","tiger:name_base_1":"State Route 509","tiger:name_direction_prefix":"S"},"geometry":{"type":"LineString","coordinates":[[-122.3167352,47.3358272],[-122.3178495,47.335388],[-122.3187776,47.334992],[-122.3194498,47.334702],[-122.3195515,47.3346639],[-122.3197259,47.3345986],[-122.320042,47.3344802],[-122.3205629,47.3342422],[-122.3208725,47.334063],[-122.3211443,47.3338459],[-122.3214196,47.3335595],[-122.321552,47.33337],[-122.3217057,47.3331156],[-122.3218902,47.3326655],[-122.3221052,47.332125],[-122.3222296,47.3317934],[-122.3223014,47.3316019],[-122.3225848,47.3308349],[-122.3226754,47.3306176],[-122.322792,47.3304141],[-122.3228636,47.3303103],[-122.3229672,47.3302018],[-122.3230753,47.3301276],[-122.32321,47.3300773],[-122.3233802,47.3300439],[-122.3235204,47.3300293],[-122.32369,47.3300321],[-122.3238652,47.3300668],[-122.3240113,47.3301155],[-122.3241376,47.3301751],[-122.3242754,47.3302583],[-122.3243918,47.3303473],[-122.3245313,47.3304623],[-122.3247183,47.3306486],[-122.3251648,47.3310621],[-122.3252742,47.3311471],[-122.325404,47.3312373],[-122.3255541,47.3313223],[-122.3257244,47.3314039],[-122.3258803,47.3314685],[-122.3260637,47.3315301],[-122.3262297,47.3315784],[-122.3264494,47.3316252],[-122.3266699,47.3316545],[-122.3268517,47.3316637],[-122.3284071,47.3317084],[-122.3292746,47.3317334],[-122.3304069,47.3317844],[-122.3312667,47.3317974],[-122.3320336,47.331811],[-122.3324274,47.3318179],[-122.3326884,47.3318078],[-122.3329389,47.3317698],[-122.3331254,47.3317141],[-122.3333072,47.331639],[-122.3334588,47.3315398],[-122.333574,47.3314527],[-122.3337151,47.3312906],[-122.3339082,47.3310459],[-122.3340179,47.3309522],[-122.3341272,47.3308778]]},"id":"way/761552379"},{"type":"Feature","properties":{"@id":"way/769012728","highway":"primary","lanes":5,"lanes:backward":2,"lanes:forward":3,"maxspeed":"35 mph","name":"1st Avenue South","name_1":"State Route 509","oneway":"no","ref":"WA 509","sidewalk":"separate","surface":"asphalt","tiger:cfcc":"A31","tiger:county":"King, WA","tiger:name_base":"1st","tiger:name_base_1":"State Route 509","tiger:name_direction_suffix":"S","turn:lanes:forward":"left||right"},"geometry":{"type":"LineString","coordinates":[[-122.3342999,47.4423568],[-122.3343208,47.4421901]]},"id":"way/769012728"},{"type":"Feature","properties":{"@id":"way/879632979","highway":"motorway","lanes":2,"maxspeed":"60 mph","oneway":"yes","ref":"WA 509","surface":"asphalt"},"geometry":{"type":"LineString","coordinates":[[-122.332173,47.4675875],[-122.3315743,47.4701152]]},"id":"way/879632979"},{"type":"Feature","properties":{"@id":"way/879770870","highway":"motorway","lanes":2,"maxheight":"default","maxspeed":"60 mph","oneway":"yes","ref":"WA 509","surface":"asphalt"},"geometry":{"type":"LineString","coordinates":[[-122.3315045,47.4631599],[-122.326989,47.4554533],[-122.3267959,47.4550848]]},"id":"way/879770870"},{"type":"Feature","properties":{"@id":"way/879770871","destination:lanes":"Des Moines|Des Moines;South 160th Street","highway":"motorway","lanes":2,"maxspeed":"60 mph","oneway":"yes","ref":"WA 509","surface":"asphalt","turn:lanes":"none|through;slight_right"},"geometry":{"type":"LineString","coordinates":[[-122.3325113,47.4668609],[-122.3326001,47.4662508],[-122.3326441,47.4657598],[-122.3324833,47.4650321],[-122.3321687,47.4642665],[-122.3315045,47.4631599]]},"id":"way/879770871"},{"type":"Feature","properties":{"@id":"way/879788692","destination:lanes":"none|none;South 128th Street","highway":"motorway","lanes":2,"maxspeed":"60 mph","oneway":"yes","ref":"WA 509","surface":"asphalt","turn:lanes":"none|through;slight_right"},"geometry":{"type":"LineString","coordinates":[[-122.3292495,47.4761391],[-122.3275727,47.4796108],[-122.3273685,47.4803778],[-122.3272126,47.4815188],[-122.3271647,47.4856039]]},"id":"way/879788692"},{"type":"Feature","properties":{"@id":"way/879799819","destination:lanes":"Des Moines|Des Moines|Burien;Seattle-Tacoma International Airport;South 146th Street","highway":"motorway","lanes":3,"maxspeed":"60 mph","oneway":"yes","ref":"WA 509","surface":"asphalt","turn:lanes":"none|none|slight_right"},"geometry":{"type":"LineString","coordinates":[[-122.3286021,47.477951],[-122.3292706,47.4765658]]},"id":"way/879799819"},{"type":"Feature","properties":{"@id":"way/880068951","highway":"motorway","hov:lanes":"designated||","hov:minimum":2,"lanes":3,"lit":"yes","maxspeed":"40 mph","motor_vehicle:lanes":"no||","oneway":"yes","ref":"WA 509","surface":"asphalt"},"geometry":{"type":"LineString","coordinates":[[-122.334519,47.5329434],[-122.3345138,47.5333441],[-122.3345178,47.5345698],[-122.3346745,47.5366286],[-122.3347131,47.5375136]]},"id":"way/880068951"},{"type":"Feature","properties":{"@id":"way/960880879","highway":"motorway","hov:lanes":"designated||","hov:minimum":2,"lanes":3,"lit":"yes","maxspeed":"60 mph","motor_vehicle:lanes":"no||","oneway":"yes","ref":"WA 509"},"geometry":{"type":"LineString","coordinates":[[-122.3345042,47.5322143],[-122.334519,47.5329434]]},"id":"way/960880879"},{"type":"Feature","properties":{"@id":"way/960880880","highway":"motorway","hov:lanes":"designated||","hov:minimum":2,"lanes":3,"lit":"yes","maxspeed":"45 mph","motor_vehicle:lanes":"no||","oneway":"yes","ref":"WA 509"},"geometry":{"type":"LineString","coordinates":[[-122.3347084,47.5345287],[-122.3346909,47.5341269],[-122.334706,47.5335974],[-122.3347284,47.5329456]]},"id":"way/960880880"},{"type":"Feature","properties":{"@id":"way/970644085","destination:lanes":"none|none|none|Myers Way;White Center","highway":"motorway","hov:lanes":"designated|||","hov:minimum":2,"lanes":4,"lit":"yes","maxspeed":"60 mph","motor_vehicle:lanes":"no|||","oneway":"yes","ref":"WA 509","turn:lanes":"none|none|none|slight_right"},"geometry":{"type":"LineString","coordinates":[[-122.3347909,47.5321273],[-122.3347818,47.5309954],[-122.3347665,47.5305156]]},"id":"way/970644085"},{"type":"Feature","properties":{"@id":"way/970661745","highway":"secondary","lanes":5,"lanes:backward":3,"lanes:forward":2,"maxspeed":"40 mph","name":"South Dash Point Road","name_1":"State Route 509","ref":"WA 509","tiger:cfcc":"A31","tiger:county":"King, WA","tiger:name_base":"Dash Point","tiger:name_base_1":"State Route 509","tiger:name_direction_prefix":"S","turn:lanes:backward":"left||right"},"geometry":{"type":"LineString","coordinates":[[-122.312195,47.3358395],[-122.3123807,47.3358364],[-122.3124079,47.335836],[-122.3126371,47.3358393],[-122.3127114,47.3358467]]},"id":"way/970661745"},{"type":"Feature","properties":{"@id":"way/970892338","highway":"motorway","lanes":3,"maxspeed":"60 mph","oneway":"yes","ref":"WA 509","surface":"asphalt"},"geometry":{"type":"LineString","coordinates":[[-122.3248924,47.5058449],[-122.3249102,47.5030377]]},"id":"way/970892338"},{"type":"Feature","properties":{"@id":"way/987962312","highway":"motorway","lanes":2,"maxspeed":"60 mph","oneway":"yes","ref":"WA 509","surface":"asphalt"},"geometry":{"type":"LineString","coordinates":[[-122.3269435,47.4556758],[-122.3291091,47.4594069]]},"id":"way/987962312"},{"type":"Feature","properties":{"@id":"way/987992096","destination:lanes":"|none;South Park;Cloverdale Street","highway":"motorway","lanes":2,"maxspeed":"60 mph","oneway":"yes","ref":"WA 509","surface":"asphalt","turn:lanes":"|through;slight_right"},"geometry":{"type":"LineString","coordinates":[[-122.3248895,47.5074402],[-122.3250571,47.507906],[-122.3252427,47.5082947],[-122.3262405,47.5102369],[-122.3272274,47.5122209],[-122.3296887,47.5165989],[-122.3298266,47.5169028],[-122.3299417,47.5172608],[-122.3304364,47.5189923],[-122.330565,47.5193436],[-122.33069,47.5196062],[-122.3312642,47.5205683],[-122.3321158,47.5219107],[-122.3326015,47.5227584],[-122.3327247,47.5230158],[-122.3328358,47.5232719],[-122.3329446,47.5235794],[-122.3329844,47.5237559]]},"id":"way/987992096"},{"type":"Feature","properties":{"@id":"way/987992097","highway":"motorway","lanes":2,"maxheight":"default","maxspeed":"60 mph","oneway":"yes","ref":"WA 509","surface":"asphalt"},"geometry":{"type":"LineString","coordinates":[[-122.3329844,47.5237559],[-122.3331107,47.5241415],[-122.3331833,47.5243823],[-122.3332459,47.5246573],[-122.3332844,47.5248546],[-122.3333108,47.5250546],[-122.333461,47.5261051],[-122.3336434,47.5270686],[-122.3337758,47.5276847],[-122.3338516,47.5280404]]},"id":"way/987992097"},{"type":"Feature","properties":{"@id":"way/989834511","cycleway":"shoulder","highway":"secondary","maxspeed":"35 mph","name":"Southwest Dash Point Road","name_1":"State Route 509","ref":"WA 509","surface":"asphalt","tiger:cfcc":"A31","tiger:county":"King, WA","tiger:name_base":"Dash Point","tiger:name_base_1":"State Route 509","tiger:name_direction_prefix":"SW"},"geometry":{"type":"LineString","coordinates":[[-122.3561982,47.3223882],[-122.3559158,47.3226529]]},"id":"way/989834511"},{"type":"Feature","properties":{"@id":"way/1046118072","highway":"primary","lanes":4,"lanes:backward":1,"lanes:forward":3,"maxspeed":"30 mph","name":"Marine View Drive South","ref":"WA 509","surface":"asphalt","turn:lanes:forward":"left||right"},"geometry":{"type":"LineString","coordinates":[[-122.3254661,47.4077825],[-122.3254144,47.4077447],[-122.3252125,47.4075862],[-122.325105,47.4075018]]},"id":"way/1046118072"},{"type":"Feature","properties":{"@id":"way/1047852055","highway":"motorway","lanes":3,"maxspeed":"60 mph","oneway":"yes","ref":"WA 509","surface":"asphalt"},"geometry":{"type":"LineString","coordinates":[[-122.3315743,47.4701152],[-122.3311323,47.4720056],[-122.3310545,47.4722873]]},"id":"way/1047852055"},{"type":"Feature","properties":{"@id":"way/1059560630","highway":"motorway","lanes":3,"maxspeed":"60 mph","oneway":"yes","ref":"WA 509","surface":"asphalt","turn:lanes":"||merge_to_left"},"geometry":{"type":"LineString","coordinates":[[-122.3291091,47.4594069],[-122.3299079,47.4607825]]},"id":"way/1059560630"},{"type":"Feature","properties":{"@id":"way/1096135630","cycleway":"shoulder","highway":"secondary","lanes":2,"maxspeed":"35 mph","name":"Southwest Dash Point Road","name_1":"State Route 509","ref":"WA 509","surface":"asphalt","tiger:cfcc":"A31","tiger:county":"King, WA","tiger:name_base":"Dash Point","tiger:name_base_1":"State Route 509","tiger:name_direction_prefix":"SW"},"geometry":{"type":"LineString","coordinates":[[-122.3450656,47.3310846],[-122.3431955,47.331532],[-122.3418034,47.3318463],[-122.3404244,47.3321953],[-122.3403946,47.3322019],[-122.339086,47.3324925],[-122.3386991,47.3325752],[-122.3383872,47.3326136],[-122.3381522,47.332626],[-122.3378947,47.332626],[-122.3375061,47.3325832],[-122.3372269,47.3325242],[-122.336956,47.3324424],[-122.3365241,47.3322788],[-122.3362532,47.3321425],[-122.3359601,47.3319493]]},"id":"way/1096135630"},{"type":"Feature","properties":{"@id":"way/1096135631","bicycle":"designated","cycleway":"shared_lane","highway":"secondary","maxspeed":"35 mph","name":"Southwest Dash Point Road","name_1":"State Route 509","ref":"WA 509","surface":"asphalt","tiger:cfcc":"A31","tiger:county":"King, WA","tiger:name_base":"Dash Point","tiger:name_base_1":"State Route 509","tiger:name_direction_prefix":"SW"},"geometry":{"type":"LineString","coordinates":[[-122.3452759,47.3310308],[-122.3450656,47.3310846]]},"id":"way/1096135631"},{"type":"Feature","properties":{"@id":"way/1099997957","highway":"primary","lanes":2,"maxspeed":"30 mph","name":"Marine View Drive South","ref":"WA 509","surface":"asphalt"},"geometry":{"type":"LineString","coordinates":[[-122.3247979,47.4069194],[-122.3247873,47.4067899],[-122.3247836,47.4064134],[-122.3247808,47.4061311]]},"id":"way/1099997957"}]}